FOSSASAT-2E18 (TAT-A)   
1 62686U 25009CF  26068.70955439  .00004172  00000+0  19425-3 0  9995
2 62686  97.4018 148.8446 0005191 339.5047  20.5980 15.20457243 63579
FGN-100-D2              
1 66299U 25248G   26068.00382769  .00006346  00000+0  30466-3 0  9990
2 66299  45.4006 298.0063 0005270 203.9196 156.1446 15.19697424 19279
